[{"OBJECT_NAME":"IRIDIUM 129","OBJECT_ID":"2017-061D","EPOCH":"2026-03-09T22:44:30.673536","MEAN_MOTION":14.34217481,"ECCENTRICITY":0.0002338,"INCLINATION":86.3914,"RA_OF_ASC_NODE":66.7388,"ARG_OF_PERICENTER":83.3381,"MEAN_ANOMALY":276.8081,"EPHEMERIS_TYPE":0,"CLASSIFICATION_TYPE":"U","NORAD_CAT_ID":42958,"ELEMENT_SET_NO":999,"REV_AT_EPOCH":44057,"BSTAR":-5.174136e-6,"MEAN_MOTION_DOT":5.0e-8,"MEAN_MOTION_DDOT":0},{"OBJECT_NAME":"FENGYUN 1C DEB","OBJECT_ID":"1999-025AHN","EPOCH":"2026-03-09T05:22:16.175712","MEAN_MOTION":14.26289507,"ECCENTRICITY":0.00646603,"INCLINATION":99.0653,"RA_OF_ASC_NODE":167.6947,"ARG_OF_PERICENTER":223.6199,"MEAN_ANOMALY":165.4818,"EPHEMERIS_TYPE":0,"CLASSIFICATION_TYPE":"U","NORAD_CAT_ID":30500,"ELEMENT_SET_NO":999,"REV_AT_EPOCH":97914,"BSTAR":0.0028512909,"MEAN_MOTION_DOT":6.953e-5,"MEAN_MOTION_DDOT":0}]
